ONEWEB-0083             
1 45435U 20020M   24214.90198294  .00000399  00000+0  10900-2 0  9992
2 45435  87.8997 157.2638 0002029  80.0063 280.1293 13.11420401212998
ONEWEB-0095             
1 45436U 20020N   24214.89366141  .00000135  00000+0  34632-3 0  9996
2 45436  87.8996 157.2991 0002628  95.6765 264.4663 13.11419709212980
ONEWEB-0085             
1 45438U 20020Q   24214.89521704  .00000167  00000+0  43457-3 0  9996
2 45438  87.8999 157.2889 0002026  76.4124 283.7229 13.11418371212996
ONEWEB-0037             
1 45440U 20020S   24214.88503753 -.00000176  00000+0 -53369-3 0  9997
2 45440  87.8992 157.2426 0002216  81.4040 278.7339 13.11420920213005
ONEWEB-0042             
1 45441U 20020T   24214.89338137  .00000087  00000+0  20953-3 0  9993
2 45441  87.8998 157.2732 0002134  77.1283 283.0084 13.11418582212985
